{
  "type": "FeatureCollection",
  "features": [
    {
      "type": "Feature",
      "properties": {
        "norad_id": 22490,
        "name": "SCD 1",
        "group": "resource",
        "lat": 0.49241796461620163,
        "lon": 62.85077118758374,
        "alt_km": 763.5319537953674,
        "timestamp": "2025-12-18T08:58:43.047939+00:00",
        "meta_object_name": "SCD 1",
        "meta_object_id": "1993-009B",
        "meta_epoch": "2025-12-17T09:42:49.057344",
        "meta_mean_motion": 14.46002371,
        "meta_eccentricity": 0.00419998,
        "meta_inclination": 24.9688,
        "meta_ra_of_asc_node": 249.8901,
        "meta_arg_of_pericenter": 14.4582,
        "meta_mean_anomaly": 147.67,
        "meta_ephemeris_type": 0,
        "meta_classification_type": "U",
        "meta_norad_cat_id": 22490,
        "meta_element_set_no": 999,
        "meta_rev_at_epoch": 73477,
        "meta_bstar": 7.8463198e-05,
        "meta_mean_motion_dot": 4.72e-06,
        "meta_mean_motion_ddot": 0,
        "tle_line1": "1 22490U 93009B   25351.40473446  .00000472  00000+0  78463-4 0  9990",
        "tle_line2": "2 22490  24.9688 249.8901 0041999  14.4582 147.6700 14.46002371734776"
      },
      "geometry": {
        "type": "Point",
        "coordinates": [
          62.85077118758374,
          0.49241796461620163
        ]
      }
    },
    {
      "type": "Feature",
      "properties": {
        "norad_id": 25397,
        "name": "TECHSAT 1B (GO-32)",
        "group": "resource",
        "lat": -63.18658136735541,
        "lon": 137.45846725947885,
        "alt_km": 819.0497983898631,
        "timestamp": "2025-12-18T08:58:43.047966+00:00",
        "meta_object_name": "TECHSAT 1B (GO-32)",
        "meta_object_id": "1998-043D",
        "meta_epoch": "2025-12-17T21:43:06.602592",
        "meta_mean_motion": 14.24378586,
        "meta_eccentricity": 0.0001907,
        "meta_inclination": 98.9923,
        "meta_ra_of_asc_node": 335.2363,
        "meta_arg_of_pericenter": 49.1157,
        "meta_mean_anomaly": 311.0186,
        "meta_ephemeris_type": 0,
        "meta_classification_type": "U",
        "meta_norad_cat_id": 25397,
        "meta_element_set_no": 999,
        "meta_rev_at_epoch": 42552,
        "meta_bstar": 5.2739716e-05,
        "meta_mean_motion_dot": 7.5e-07,
        "meta_mean_motion_ddot": 0,
        "tle_line1": "1 25397U 98043D   25351.90493753  .00000075  00000+0  52740-4 0  9999",
        "tle_line2": "2 25397  98.9923 335.2363 0001907  49.1157 311.0186 14.24378586425523"
      },
      "geometry": {
        "type": "Point",
        "coordinates": [
          137.45846725947885,
          -63.18658136735541
        ]
      }
    },
    {
      "type": "Feature",
      "properties": {
        "norad_id": 25504,
        "name": "SCD 2",
        "group": "resource",
        "lat": -7.860135290324973,
        "lon": -55.60738215555579,
        "alt_km": 751.5450036327575,
        "timestamp": "2025-12-18T08:58:43.047983+00:00",
        "meta_object_name": "SCD 2",
        "meta_object_id": "1998-060A",
        "meta_epoch": "2025-12-17T15:35:50.466624",
        "meta_mean_motion": 14.45426055,
        "meta_eccentricity": 0.00168517,
        "meta_inclination": 24.9942,
        "meta_ra_of_asc_node": 111.6188,
        "meta_arg_of_pericenter": 5.6852,
        "meta_mean_anomaly": 17.0271,
        "meta_ephemeris_type": 0,
        "meta_classification_type": "U",
        "meta_norad_cat_id": 25504,
        "meta_element_set_no": 999,
        "meta_rev_at_epoch": 43403,
        "meta_bstar": 5.8702746e-05,
        "meta_mean_motion_dot": 3.92e-06,
        "meta_mean_motion_ddot": 0,
        "tle_line1": "1 25504U 98060A   25351.64988966  .00000392  00000+0  58703-4 0  9991",
        "tle_line2": "2 25504  24.9942 111.6188 0016851   5.6852  17.0271 14.45426055434039"
      },
      "geometry": {
        "type": "Point",
        "coordinates": [
          -55.60738215555579,
          -7.860135290324973
        ]
      }
    },
    {
      "type": "Feature",
      "properties": {
        "norad_id": 25757,
        "name": "DLR-TUBSAT",
        "group": "resource",
        "lat": -49.64981404415347,
        "lon": -12.607898665391827,
        "alt_km": 731.8387715532281,
        "timestamp": "2025-12-18T08:58:43.047995+00:00",
        "meta_object_name": "DLR-TUBSAT",
        "meta_object_id": "1999-029B",
        "meta_epoch": "2025-12-17T13:22:10.787520",
        "meta_mean_motion": 14.52359578,
        "meta_eccentricity": 0.00141996,
        "meta_inclination": 98.6566,
        "meta_ra_of_asc_node": 336.2196,
        "meta_arg_of_pericenter": 177.8976,
        "meta_mean_anomaly": 182.2281,
        "meta_ephemeris_type": 0,
        "meta_classification_type": "U",
        "meta_norad_cat_id": 25757,
        "meta_element_set_no": 999,
        "meta_rev_at_epoch": 40688,
        "meta_bstar": 3.7650132e-05,
        "meta_mean_motion_dot": 1.05e-06,
        "meta_mean_motion_ddot": 0,
        "tle_line1": "1 25757U 99029B   25351.55706930  .00000105  00000+0  37650-4 0  9996",
        "tle_line2": "2 25757  98.6566 336.2196 0014199 177.8976 182.2281 14.52359578406886"
      },
      "geometry": {
        "type": "Point",
        "coordinates": [
          -12.607898665391827,
          -49.64981404415347
        ]
      }
    },
    {
      "type": "Feature",
      "properties": {
        "norad_id": 25994,
        "name": "TERRA",
        "group": "resource",
        "lat": -5.6244661363058635,
        "lon": -136.93926231993757,
        "alt_km": 694.4936587148495,
        "timestamp": "2025-12-18T08:58:43.048008+00:00",
        "meta_object_name": "TERRA",
        "meta_object_id": "1999-068A",
        "meta_epoch": "2025-12-17T21:24:59.967936",
        "meta_mean_motion": 14.60907758,
        "meta_eccentricity": 0.0003573,
        "meta_inclination": 97.9743,
        "meta_ra_of_asc_node": 43.3877,
        "meta_arg_of_pericenter": 84.3831,
        "meta_mean_anomaly": 89.0039,
        "meta_ephemeris_type": 0,
        "meta_classification_type": "U",
        "meta_norad_cat_id": 25994,
        "meta_element_set_no": 999,
        "meta_rev_at_epoch": 38313,
        "meta_bstar": 9.2913413e-05,
        "meta_mean_motion_dot": 4.1e-06,
        "meta_mean_motion_ddot": 0,
        "tle_line1": "1 25994U 99068A   25351.89236074  .00000410  00000+0  92913-4 0  9998",
        "tle_line2": "2 25994  97.9743  43.3877 0003573  84.3831  89.0039 14.60907758383131"
      },
      "geometry": {
        "type": "Point",
        "coordinates": [
          -136.93926231993757,
          -5.6244661363058635
        ]
      }
    },
    {
      "type": "Feature",
      "properties": {
        "norad_id": 27004,
        "name": "MAROC-TUBSAT",
        "group": "resource",
        "lat": 40.61401447842424,
        "lon": -10.567150041192068,
        "alt_km": 999.3529453470092,
        "timestamp": "2025-12-18T08:58:43.048020+00:00",
        "meta_object_name": "MAROC-TUBSAT",
        "meta_object_id": "2001-056D",
        "meta_epoch": "2025-12-17T18:20:51.979200",
        "meta_mean_motion": 13.70253163,
        "meta_eccentricity": 0.00191379,
        "meta_inclination": 99.7913,
        "meta_ra_of_asc_node": 160.2974,
        "meta_arg_of_pericenter": 246.7526,
        "meta_mean_anomaly": 126.3976,
        "meta_ephemeris_type": 0,
        "meta_classification_type": "U",
        "meta_norad_cat_id": 27004,
        "meta_element_set_no": 999,
        "meta_rev_at_epoch": 20134,
        "meta_bstar": 2.6264534e-05,
        "meta_mean_motion_dot": -2.4e-07,
        "meta_mean_motion_ddot": 0,
        "tle_line1": "1 27004U 01056D   25351.76449050 -.00000024  00000+0  26265-4 0  9997",
        "tle_line2": "2 27004  99.7913 160.2974 0019137 246.7526 126.3976 13.70253163201340"
      },
      "geometry": {
        "type": "Point",
        "coordinates": [
          -10.567150041192068,
          40.61401447842424
        ]
      }
    },
    {
      "type": "Feature",
      "properties": {
        "norad_id": 27424,
        "name": "AQUA",
        "group": "resource",
        "lat": 76.35975136232807,
        "lon": -84.18856471975555,
        "alt_km": 679.3068847090944,
        "timestamp": "2025-12-18T08:58:43.048032+00:00",
        "meta_object_name": "AQUA",
        "meta_object_id": "2002-022A",
        "meta_epoch": "2025-12-17T16:39:39.625632",
        "meta_mean_motion": 14.61820578,
        "meta_eccentricity": 0.00012752,
        "meta_inclination": 98.4042,
        "meta_ra_of_asc_node": 312.6539,
        "meta_arg_of_pericenter": 113.5428,
        "meta_mean_anomaly": 349.8052,
        "meta_ephemeris_type": 0,
        "meta_classification_type": "U",
        "meta_norad_cat_id": 27424,
        "meta_element_set_no": 999,
        "meta_rev_at_epoch": 25675,
        "meta_bstar": 0.00018111958,
        "meta_mean_motion_dot": 8.55e-06,
        "meta_mean_motion_ddot": 0,
        "tle_line1": "1 27424U 02022A   25351.69420863  .00000855  00000+0  18112-3 0  9992",
        "tle_line2": "2 27424  98.4042 312.6539 0001275 113.5428 349.8052 14.61820578256754"
      },
      "geometry": {
        "type": "Point",
        "coordinates": [
          -84.18856471975555,
          76.35975136232807
        ]
      }
    }
  ]
}